[
  {
    "OBJECT_NAME": "STARLINK-5954",
    "OBJECT_ID": "23058B",
    "EPOCH": "2025-11-11T06:38:26.921472",
    "MEAN_MOTION": 15.05653157,
    "ECCENTRICITY": 0.0002028,
    "INCLINATION": 97.6036,
    "RA_OF_ASC_NODE": 314.5678,
    "ARG_OF_PERICENTER": 108.8144,
    "MEAN_ANOMALY": 251.3303,
    "EPHEMERIS_TYPE": 0,
    "CLASSIFICATION_TYPE": "U",
    "NORAD_CAT_ID": 56318,
    "ELEMENT_SET_NO": 999,
    "REV_AT_EPOCH": 14003,
    "BSTAR": 0.00057969,
    "MEAN_MOTION_DOT": 8.314e-05,
    "MEAN_MOTION_DDOT": 0.0,
    "TLE_LINE1": "1 56318U 23058B   25315.27670048  .00008314  00000+0  57969-3 0  9995",
    "TLE_LINE2": "2 56318  97.6036 314.5678 0002028 108.8144 251.3303 15.05653157140031",
    "COMMENT": "Grouped by shell and plane from TLE"
  },
  {
    "OBJECT_NAME": "STARLINK-6039",
    "OBJECT_ID": "23058C",
    "EPOCH": "2025-11-10T23:07:38.788896",
    "MEAN_MOTION": 15.0126217,
    "ECCENTRICITY": 7.74e-05,
    "INCLINATION": 97.6035,
    "RA_OF_ASC_NODE": 313.9064,
    "ARG_OF_PERICENTER": 85.1582,
    "MEAN_ANOMALY": 274.9731,
    "EPHEMERIS_TYPE": 0,
    "CLASSIFICATION_TYPE": "U",
    "NORAD_CAT_ID": 56319,
    "ELEMENT_SET_NO": 999,
    "REV_AT_EPOCH": 13996,
    "BSTAR": 6.028400000000001e-05,
    "MEAN_MOTION_DOT": 7.16e-06,
    "MEAN_MOTION_DDOT": 0.0,
    "TLE_LINE1": "1 56319U 23058C   25314.96364339  .00000716  00000+0  60284-4 0  9997",
    "TLE_LINE2": "2 56319  97.6035 313.9064 0000774  85.1582 274.9731 15.01262170139965",
    "COMMENT": "Grouped by shell and plane from TLE"
  },
  {
    "OBJECT_NAME": "STARLINK-5988",
    "OBJECT_ID": "23058D",
    "EPOCH": "2025-11-11T05:39:55.021536",
    "MEAN_MOTION": 15.01263334,
    "ECCENTRICITY": 0.0001202,
    "INCLINATION": 97.6022,
    "RA_OF_ASC_NODE": 314.1584,
    "ARG_OF_PERICENTER": 174.5231,
    "MEAN_ANOMALY": 185.6007,
    "EPHEMERIS_TYPE": 0,
    "CLASSIFICATION_TYPE": "U",
    "NORAD_CAT_ID": 56320,
    "ELEMENT_SET_NO": 999,
    "REV_AT_EPOCH": 14001,
    "BSTAR": 0.0,
    "MEAN_MOTION_DOT": -3.57e-06,
    "MEAN_MOTION_DDOT": 0.0,
    "TLE_LINE1": "1 56320U 23058D   25315.23605349 -.00000357  00000+0 -23280-4 0  9997",
    "TLE_LINE2": "2 56320  97.6022 314.1584 0001202 174.5231 185.6007 15.01263334140019",
    "COMMENT": "Grouped by shell and plane from TLE"
  },
  {
    "OBJECT_NAME": "STARLINK-5876",
    "OBJECT_ID": "23058E",
    "EPOCH": "2025-11-11T06:54:21.663072",
    "MEAN_MOTION": 15.05657908,
    "ECCENTRICITY": 0.0002597,
    "INCLINATION": 97.6025,
    "RA_OF_ASC_NODE": 314.5562,
    "ARG_OF_PERICENTER": 101.104,
    "MEAN_ANOMALY": 259.0479,
    "EPHEMERIS_TYPE": 0,
    "CLASSIFICATION_TYPE": "U",
    "NORAD_CAT_ID": 56321,
    "ELEMENT_SET_NO": 999,
    "REV_AT_EPOCH": 14003,
    "BSTAR": 0.0,
    "MEAN_MOTION_DOT": -0.00023874,
    "MEAN_MOTION_DDOT": 0.0,
    "TLE_LINE1": "1 56321U 23058E   25315.28775073 -.00023874  00000+0 -16554-2 0  9998",
    "TLE_LINE2": "2 56321  97.6025 314.5562 0002597 101.1040 259.0479 15.05657908140034",
    "COMMENT": "Grouped by shell and plane from TLE"
  },
  {
    "OBJECT_NAME": "STARLINK-6033",
    "OBJECT_ID": "23058F",
    "EPOCH": "2025-11-10T10:25:08.807808",
    "MEAN_MOTION": 15.01262008,
    "ECCENTRICITY": 0.0002129,
    "INCLINATION": 97.6026,
    "RA_OF_ASC_NODE": 313.3786,
    "ARG_OF_PERICENTER": 155.6261,
    "MEAN_ANOMALY": 204.5064,
    "EPHEMERIS_TYPE": 0,
    "CLASSIFICATION_TYPE": "U",
    "NORAD_CAT_ID": 56322,
    "ELEMENT_SET_NO": 999,
    "REV_AT_EPOCH": 13988,
    "BSTAR": 1.3808000000000002e-05,
    "MEAN_MOTION_DOT": 1.19e-06,
    "MEAN_MOTION_DDOT": 0.0,
    "TLE_LINE1": "1 56322U 23058F   25314.43412972  .00000119  00000+0  13808-4 0  9997",
    "TLE_LINE2": "2 56322  97.6026 313.3786 0002129 155.6261 204.5064 15.01262008139886",
    "COMMENT": "Grouped by shell and plane from TLE"
  },
  {
    "OBJECT_NAME": "STARLINK-6035",
    "OBJECT_ID": "23058G",
    "EPOCH": "2025-11-10T23:02:19.059648",
    "MEAN_MOTION": 15.01268117,
    "ECCENTRICITY": 5.26e-05,
    "INCLINATION": 97.6049,
    "RA_OF_ASC_NODE": 313.9154,
    "ARG_OF_PERICENTER": 149.0299,
    "MEAN_ANOMALY": 211.0957,
    "EPHEMERIS_TYPE": 0,
    "CLASSIFICATION_TYPE": "U",
    "NORAD_CAT_ID": 56323,
    "ELEMENT_SET_NO": 999,
    "REV_AT_EPOCH": 13995,
    "BSTAR": 0.0,
    "MEAN_MOTION_DOT": -5.05e-06,
    "MEAN_MOTION_DDOT": 0.0,
    "TLE_LINE1": "1 56323U 23058G   25314.95994282 -.00000505  00000+0 -34802-4 0  9992",
    "TLE_LINE2": "2 56323  97.6049 313.9154 0000526 149.0299 211.0957 15.01268117139953",
    "COMMENT": "Grouped by shell and plane from TLE"
  },
  {
    "OBJECT_NAME": "STARLINK-6034",
    "OBJECT_ID": "23058H",
    "EPOCH": "2025-11-11T06:34:25.798944",
    "MEAN_MOTION": 15.05639981,
    "ECCENTRICITY": 0.0001837,
    "INCLINATION": 97.6029,
    "RA_OF_ASC_NODE": 314.5726,
    "ARG_OF_PERICENTER": 90.6677,
    "MEAN_ANOMALY": 269.476,
    "EPHEMERIS_TYPE": 0,
    "CLASSIFICATION_TYPE": "U",
    "NORAD_CAT_ID": 56324,
    "ELEMENT_SET_NO": 999,
    "REV_AT_EPOCH": 14003,
    "BSTAR": 0.0,
    "MEAN_MOTION_DOT": -8.29e-06,
    "MEAN_MOTION_DDOT": 0.0,
    "TLE_LINE1": "1 56324U 23058H   25315.27390971 -.00000829  00000+0 -53239-4 0  9998",
    "TLE_LINE2": "2 56324  97.6029 314.5726 0001837  90.6677 269.4760 15.05639981140036",
    "COMMENT": "Grouped by shell and plane from TLE"
  },
  {
    "OBJECT_NAME": "STARLINK-5981",
    "OBJECT_ID": "23058J",
    "EPOCH": "2025-11-11T06:51:32.699232",
    "MEAN_MOTION": 15.01263933,
    "ECCENTRICITY": 0.0001854,
    "INCLINATION": 97.602,
    "RA_OF_ASC_NODE": 314.2606,
    "ARG_OF_PERICENTER": 89.8299,
    "MEAN_ANOMALY": 270.3138,
    "EPHEMERIS_TYPE": 0,
    "CLASSIFICATION_TYPE": "U",
    "NORAD_CAT_ID": 56325,
    "ELEMENT_SET_NO": 999,
    "REV_AT_EPOCH": 14036,
    "BSTAR": 8.4121e-05,
    "MEAN_MOTION_DOT": 1.022e-05,
    "MEAN_MOTION_DDOT": 0.0,
    "TLE_LINE1": "1 56325U 23058J   25315.28579513  .00001022  00000+0  84121-4 0  9999",
    "TLE_LINE2": "2 56325  97.6020 314.2606 0001854  89.8299 270.3138 15.01263933140363",
    "COMMENT": "Grouped by shell and plane from TLE"
  },
  {
    "OBJECT_NAME": "STARLINK-5980",
    "OBJECT_ID": "23058K",
    "EPOCH": "2025-11-10T23:05:19.267584",
    "MEAN_MOTION": 15.01258413,
    "ECCENTRICITY": 0.0001342,
    "INCLINATION": 97.6057,
    "RA_OF_ASC_NODE": 313.9074,
    "ARG_OF_PERICENTER": 105.6817,
    "MEAN_ANOMALY": 254.4556,
    "EPHEMERIS_TYPE": 0,
    "CLASSIFICATION_TYPE": "U",
    "NORAD_CAT_ID": 56326,
    "ELEMENT_SET_NO": 999,
    "REV_AT_EPOCH": 13996,
    "BSTAR": 3.2466000000000004e-05,
    "MEAN_MOTION_DOT": 3.59e-06,
    "MEAN_MOTION_DDOT": 0.0,
    "TLE_LINE1": "1 56326U 23058K   25314.96202856  .00000359  00000+0  32466-4 0  9994",
    "TLE_LINE2": "2 56326  97.6057 313.9074 0001342 105.6817 254.4556 15.01258413139962",
    "COMMENT": "Grouped by shell and plane from TLE"
  },
  {
    "OBJECT_NAME": "STARLINK-5997",
    "OBJECT_ID": "23058L",
    "EPOCH": "2025-11-11T00:19:59.054880",
    "MEAN_MOTION": 15.01261552,
    "ECCENTRICITY": 0.0002613,
    "INCLINATION": 97.6026,
    "RA_OF_ASC_NODE": 314.0069,
    "ARG_OF_PERICENTER": 74.9987,
    "MEAN_ANOMALY": 285.1527,
    "EPHEMERIS_TYPE": 0,
    "CLASSIFICATION_TYPE": "U",
    "NORAD_CAT_ID": 56327,
    "ELEMENT_SET_NO": 999,
    "REV_AT_EPOCH": 14032,
    "BSTAR": 5.2988e-05,
    "MEAN_MOTION_DOT": 6.22e-06,
    "MEAN_MOTION_DDOT": 0.0,
    "TLE_LINE1": "1 56327U 23058L   25315.01387795  .00000622  00000+0  52988-4 0  9992",
    "TLE_LINE2": "2 56327  97.6026 314.0069 0002613  74.9987 285.1527 15.01261552140322",
    "COMMENT": "Grouped by shell and plane from TLE"
  },
  {
    "OBJECT_NAME": "STARLINK-5992",
    "OBJECT_ID": "23058M",
    "EPOCH": "2025-11-11T05:50:33.169344",
    "MEAN_MOTION": 15.05653457,
    "ECCENTRICITY": 0.0002163,
    "INCLINATION": 97.6001,
    "RA_OF_ASC_NODE": 314.4606,
    "ARG_OF_PERICENTER": 82.4981,
    "MEAN_ANOMALY": 277.6491,
    "EPHEMERIS_TYPE": 0,
    "CLASSIFICATION_TYPE": "U",
    "NORAD_CAT_ID": 56328,
    "ELEMENT_SET_NO": 999,
    "REV_AT_EPOCH": 14037,
    "BSTAR": 0.0,
    "MEAN_MOTION_DOT": -2.155e-05,
    "MEAN_MOTION_DDOT": 0.0,
    "TLE_LINE1": "1 56328U 23058M   25315.24343946 -.00002155  00000+0 -14518-3 0  9999",
    "TLE_LINE2": "2 56328  97.6001 314.4606 0002163  82.4981 277.6491 15.05653457140379",
    "COMMENT": "Grouped by shell and plane from TLE"
  },
  {
    "OBJECT_NAME": "STARLINK-5984",
    "OBJECT_ID": "23058N",
    "EPOCH": "2025-11-10T18:20:43.580256",
    "MEAN_MOTION": 15.05647621,
    "ECCENTRICITY": 0.0001844,
    "INCLINATION": 97.6016,
    "RA_OF_ASC_NODE": 314.0217,
    "ARG_OF_PERICENTER": 81.5624,
    "MEAN_ANOMALY": 278.5812,
    "EPHEMERIS_TYPE": 0,
    "CLASSIFICATION_TYPE": "U",
    "NORAD_CAT_ID": 56329,
    "ELEMENT_SET_NO": 999,
    "REV_AT_EPOCH": 14030,
    "BSTAR": 2.7250999999999997e-05,
    "MEAN_MOTION_DOT": 3.32e-06,
    "MEAN_MOTION_DDOT": 0.0,
    "TLE_LINE1": "1 56329U 23058N   25314.76439329  .00000332  00000+0  27251-4 0  9999",
    "TLE_LINE2": "2 56329  97.6016 314.0217 0001844  81.5624 278.5812 15.05647621140305",
    "COMMENT": "Grouped by shell and plane from TLE"
  },
  {
    "OBJECT_NAME": "STARLINK-5991",
    "OBJECT_ID": "23058Q",
    "EPOCH": "2025-11-11T06:40:52.740480",
    "MEAN_MOTION": 15.01264677,
    "ECCENTRICITY": 0.0003137,
    "INCLINATION": 97.6023,
    "RA_OF_ASC_NODE": 314.2706,
    "ARG_OF_PERICENTER": 72.9784,
    "MEAN_ANOMALY": 287.1784,
    "EPHEMERIS_TYPE": 0,
    "CLASSIFICATION_TYPE": "U",
    "NORAD_CAT_ID": 56331,
    "ELEMENT_SET_NO": 999,
    "REV_AT_EPOCH": 14036,
    "BSTAR": 8.9041e-05,
    "MEAN_MOTION_DOT": 1.086e-05,
    "MEAN_MOTION_DDOT": 0.0,
    "TLE_LINE1": "1 56331U 23058Q   25315.27838820  .00001086  00000+0  89041-4 0  9990",
    "TLE_LINE2": "2 56331  97.6023 314.2706 0003137  72.9784 287.1784 15.01264677140361",
    "COMMENT": "Grouped by shell and plane from TLE"
  }
]